[{"OBJECT_NAME":"STARLINK-3720","OBJECT_ID":"2022-029BA","EPOCH":"2026-03-09T06:23:59.490528","MEAN_MOTION":15.08818219,"ECCENTRICITY":0.00014568,"INCLINATION":53.2169,"RA_OF_ASC_NODE":71.0195,"ARG_OF_PERICENTER":74.6079,"MEAN_ANOMALY":285.5074,"EPHEMERIS_TYPE":0,"CLASSIFICATION_TYPE":"U","NORAD_CAT_ID":52136,"ELEMENT_SET_NO":999,"REV_AT_EPOCH":22087,"BSTAR":-0.00016137058,"MEAN_MOTION_DOT":-2.854e-5,"MEAN_MOTION_DDOT":0},{"OBJECT_NAME":"TIANPING 2C","OBJECT_ID":"2022-032D","EPOCH":"2026-03-09T22:24:23.522112","MEAN_MOTION":15.10225163,"ECCENTRICITY":0.00079422,"INCLINATION":97.5961,"RA_OF_ASC_NODE":122.1196,"ARG_OF_PERICENTER":128.8925,"MEAN_ANOMALY":231.3013,"EPHEMERIS_TYPE":0,"CLASSIFICATION_TYPE":"U","NORAD_CAT_ID":52156,"ELEMENT_SET_NO":999,"REV_AT_EPOCH":21586,"BSTAR":0.00036090623,"MEAN_MOTION_DOT":5.841e-5,"MEAN_MOTION_DDOT":0}]
